Clinic Name,Address,City,State,Zip,Phone,Practice Director,Medical Director,Lab Director,Website,2010 Cycles
Alabama Fertility Specialists,2700 Highway 280,Birmingham,AL,35223,205-874-0000,"Michael P. Steinkampf, M.D.","Michael P. Steinkampf, M.D.","Michael P. Steinkampf, M.D.",N/A,232
ART Fertility Program of Alabama,2006 Brookwood Med Ctr Dr.,Birmingham,AL,35209,205-870-9784,"Kathryn L. Honea, M.D.","Kathryn L. Honea, M.D.","Deborah C. Merryman, MSc, ELD",http://www.artprogramAL.com,916
University of Alabama at Birmingham,618 20th Street South,Birmingham,AL,35249,205-934-5708,"G. Wright Bates, M.D.","G. Wright Bates, M.D.","Phillip A. Kretzer, B.S.",N/A,148
Center for Reproductive Medicine,3 Mobile Infirmary Cr,Mobile,AL,36607,251-438-4200,"George T. Koulianos, M.D.","George T. Koulianos, M.D.","Suzanne D. Degelos, Ph.D., HCLD",http://www.infertilityalabama.com,692
University of South Alabama,1610 Center Street,Mobile,AL,36604-1512,251-415-8602,"Botros Rizk, M.D., HCLD","Botros Rizk, M.D., HCLD","Botros Rizk, M.D., HCLD",N/A,124
Arkansas Fertility Center,9101 Kanis Road,Little Rock,AR,72205,501-801-1200,"Dean M. Moutos, M.D.","Michael M. Miller, M.D.","Wan-Song A. Wun, Ph.D., HCLD",http://www.arkansasfertility.com,0
West Valley Fertility Center,17612 North 59th Avenue,Glendale,AZ,85308,602-993-8636,"Vladimir Troche, M.D.","Vladimir Troche, M.D.","B. Dianne Smith, Ph.D., HCLD",http://www.wvfc.com,372
Arizona Reproductive Medicine Specialists,1701 East Thomas Road,Phoenix,AZ,85016-7669,602-343-2767,"Drew V. Moffitt ,M.D.","Drew V. Moffitt, M.D.","Kimball O. Pomeroy, Ph.D., HCLD",http://www.arizonarms.com,844
Southwest Fertility Center,3125 N 32nd Street,Phoenix,AZ,85018,602-956-7481,"Sujatha Gunnala, M.D.","Sujatha Gunnala, M.D.","Sujatha Gunnala, M.D.",http://www.southwestfertilitycenter.com,192
"Advanced Fertility Care, PLLC",9819 North 95th Street,Scottsdale,AZ,85258,480-874-2229,"Nathaniel Zoneraich, M.D.","Nathaniel Zoneraich, M.D.","Joseph Conaghan, Ph.D., HCLD",http://www.advancedfertilitycare.com,392
Arizona Associates for Reproductive Health,8573 East Princess Drive,Scottsdale,AZ,85255,480-946-9900,"Ketan S. Patel, M.D.","Ketan S. Patel, M.D.","Diane G. Hammitt, Ph.D., HCLDELD",http://www.AzARH.com,628
Arizona Center for Fertility Studies,8997 E. Desert Cove Ave,Scottsdale,AZ,85260,480-860-4792,"Jay S. Nemiro, M.D.","Jay S. Nemiro, M.D.","Robert W. McGaughey, Ph.D.",http://www.acfs2000.com,220
IVF Phoenix,9817 N 95th Street,Scottsdale,AZ,85258,602-765-2229,"John L. Couvaras, M.D.","John L. Couvaras, M.D.","John L. Couvaras, M.D.",http://www.ivfphoenix.com,92
Arizona Center for Reproductive Endocrinology and Infertility,5190 East Farness,Tucson,AZ,85712,520-326-0001,"Timothy J. Gelety, M.D.","Timothy J. Gelety, M.D.","Bin Wu, Ph.D., HCLD",http://www.infertility-azctr.com,804
Reproductive Health Center,4518 East Camp Lowell Drive,Tucson,AZ,85712,520-733-0083,"Holly Hutchison, MS","Scot M. Hutchison, M.D.","Steven M. Voelkel, Ph.D., HCLD",N/A,424
Garfield Fertility Center,320 South Garfield Avenue,Alhambra,CA,91801,626-943-9536,"Brian Su, M.D.","Brian Su, M.D.","David Hill, Ph.D., HCLDELD",N/A,112
Alta Bates IVF Program,2999 Regent Street,Berkeley,CA,94705,510-649-0440,"Ryszard J. Chetkowski, M.D.","Ryszard J. Chetkowski, M.D.","Andras Szell, Ph.D.",http://www.abivf.com,168
Beverly Hills Reproductive Fertility Center,9301 Wilshire Blvd,Beverly Hills,CA,90210,310-278-7590,"Peyman Saadat, M.D.","Peyman Saadat, M.D.","Jerry L Hall, Ph.D., HCLD",N/A,812
Center for Reproductive Health and Gynecology,99 North La Cienega Boulevard,Beverly Hills,CA,90211,310-360-7584,"Sam Najmabadi, M.D.","Sam Najmabadi, M.D.","Sam Najmabadi, M.D.",http://www.reproductive.org,400
Southern California Reproductive Center,450 N. Roxbury Dr.,Beverly Hills,CA,90210,310-277-2393,"Mark W. Surrey, M.D.","Mark W. Surrey, M.D.","David Hill, Ph.D.",http://www.scrcivf.com,1704
Central California IVF - Women's Specialty & Fertility Center,722 East Medical Center Drive,Clovis,CA,93611,559-299-7700,"H. Michael Synn, M.D.","Carlos E. Sueldo, M.D.","Elisabet Subias, M.S.",http://www.valleystork.com,564
HRC Fertility - Encino,15503 Ventura Blvd,Encino,CA,91436,818-788-7288,"David E. Tourgeman, M.D.","Michael A. Feinman, M.D.","David E. Battaglia, Ph.D.",http://www.havingbabies.com,1272
"The Fertility Institutes - California, New York",16030 Ventura Boulevard,Encino,CA,91436,818-728-4600,"Jeffrey Steinberg, M.D.","Jeffrey Steinberg, M.D.","Sergei V. Eiskov, Ph.D, HCLD/Anil Dubey, Ph.D., HC",http://www.fertility-docs.com,1044
Zouves Fertility Center,1241 East Hillsdale Blvd.,Foster City,CA,94404,650-301-4933,"Christo G. Zouves, M.D.","Christo G. Zouves, M.D.","Frank L. Barnes, Ph.D., HCLD",http://www.GoIVF.com,1264
The Kaiser Permanente Center for Reproductive Health,39141 Civic Center Drive,Fremont,CA,94538,510-248-6900,"Dave Newhouse, M.D., MPH","Jon A. Proctor, M.D.","David E. Battaglia, Ph.D., HCLD",http://www.kpivf.org,1940
Coastal Fertility Medical Center,4900 Baranca Parkway,Irvine,CA,92604,949-726-0600,"Lawrence B. Werlin, M.D.","Lawrence B. Werlin, M.D.","Thomas E. Nass, Ph.D., HCLD",http://www.coastalfertility.com,812
Fertility Center of Southern California,2192 Martin Street,Irvine,CA,92612,949-955-0072,"Ilene E. Hatch, M.D.","Ilene E. Hatch, M.D.","Joseph Conaghan, Ph.D.",N/A,360
Huntington Reproductive Center Medical Group,23961 Calle de la Magdalena,Laguna Hills,CA,92653,949-472-9446,"Jane L. Frederick, M.D.","Daniel A. Potter, M.D.","Barry R. Behr, Ph.D., HCLD",N/A,1304
Reproductive Partners - UCSD,9850 Genesee Avenue,La Jolla,CA,92037,858-552-9177,"V. Gabriel Garzo, M.D.","V. Gabriel Garzo, M.D.","V. Gabriel Garzo, M.D.",http://www.reproductivepartners.com,1548
Reproductive Sciences Center,4150 Regents Park Row,La Jolla,CA,92037,858-625-0125,"Samuel H. Wood, M.D., Ph.D.","Samuel H. Wood, M.D., Ph.D.","Catherine A. Adams, Ph.D., HCLDELD",http://www.fertile.com,152
Loma Linda University - Center for Fertility and IVF,11370 Anderson St.,Loma Linda,CA,92354,909-558-2851,"Johannah Corselli, Ph.D., HCLD,ELD","John D. Jacobson, M.D.","Johannah Corselli, Ph.D., HCLD, ELD",http://www.llu.edu/lluhc/fertility,540
California Fertility Partners,11818 Wilshire Boulevard,Los Angeles,CA,90025,310-828-4008,"Richard P. Marrs, M.D.","Richard P. Marrs, M.D.","Bronte A. Stone, Ph.D., HCLD",http://www.lainfertility.com,1372
Cedars-Sinai Medical Center,8700 Beverly Blvd,Los Angeles,CA,90048,310-423-9964,"Margareta D. Pisarska, M.D.","Margareta D. Pisarska, M.D.","David L. Hill, Ph.D., HCLD",http://www.csmc.edu/cfrm,272
Comprehensive Health for All Fertility Medical Group Inc,5455 Wilshire Boulevard,Los Angeles,CA,90036,323-525-3377,"Vicken P. Sepilian, M.D.","Vicken P. Sepilian, M.D.","Man Li, M.D., Ph.D., HCLD",N/A,0
UCLA Fertility Center,200 Medical Plaza,Los Angeles,CA,90095,310-825-9500,"T.C. Jackson Wu, M.D., Ph.D.","T.C. Jackson Wu, M.D., Ph.D.","David L. Hill, Ph.D., HCLD",N/A,372
USC Fertility,1127 Wilshire Blvd,Los Angeles,CA,90017,213-975-9990,"Richard J. Paulson, M.D.","Richard J. Paulson, M.D.","Mary M. Francis, B.S.",www.USCFertility.org,716
Fertility and Gynecology Center,9833 Blue Larkspur Lane,Monterey,CA,93940,831-649-4483,"Edward J. Ramirez, M.D.","Edward J. Ramirez, M.D.","Lisa Standing, BSELD",http://www.montereybayivf.com,252
Newport Fertility Center,20072 SW Birch Street,Newport Beach,CA,92660,949-222-1290,"Mark T. Kan, M.D.","Mark T. Kan, M.D.","Mitchel C. Schiewe, Ph.D., HCLD",N/A,0
Reproductive Specialty Medical Center,1441 Avocado Avenue,Newport Beach,CA,92660,949-640-7200,"Beth Anne Ary, M.D.","Beth Anne Ary, M.D.","James Ary, Ph.D., HCLD",http://www.drary.com,120
Southern California Center for Reproductive Medicine,361 Hospital Road,Newport Beach,CA,92663,949-642-8727,"Robert E. Anderson, M.D.","Robert E. Anderson, M.D.","Mitchel C. Schiewe, Ph.D., HCLD",http://www.socalfertility.com,1280
NOVA In Vitro Fertilization,1681 El Camino Real,Palo Alto,CA,94306,650-322-0500,"Francis Polansky, M.D.","Richard J. Schmidt, M.D.","Eve Shen, M.S.",http://novaivf.com,688
HRC Fertility - Pasadena,333 S. Arroyo Pkwy,Pasadena,CA,91105,626-440-9161,"John G. Wilcox, M.D.","Bradford A. Kolb, M.D.","David E. Battaglia, Ph.D.",http://www.havingbabies.com,1156
Palo Alto Medical Foundation,3220 Alpine Road,Portola Valley,CA,94028,650-853-2200,"Lillian M. Swiersz, M.D.","Lillian M. Swiersz, M.D.","Marina Gvakharia, M.D., Ph.D., HCLD",N/A,676
Reproductive Partners - Redondo Beach,510 North Prosect,RedondoBeach,CA,90277,310-318-3010,"David R. Meldrum, M.D.","Bill Yee, M.D.",D. Meldrum MD/B. Yee MD,http://www.reproductivepartners.com,1484
Northern California Fertility Medical Center,1130 Conroy Lane,Roseville,CA,95661,916-773-2229,"Janice L. Andreyko, M.D.","Carlos Soto-Albors, M.D.","Kristen A. Ivani, Ph.D., HCLD",http://www.ncfmc.com,1452
Kaiser Permanente Center for Reproductive Health Sacramento,1650 Response Road,Sacramento,CA,95815,916-614-5200,"Sandy Tschannen, MPA","Kenneth K. Vu, M.D.","Fariba Nehchiri, MSTSELD",http://www.kpivf.com,664
UC Davis ART Program,2521 Stockton Boulevard,Sacramento,CA,95817,916-734-6106,"Albert K. Wei, M.D., Ph.D.","Albert K. Wei, M.D., Ph.D.","Ping Xia, M.D., Ph.D., HCLD",http://fertility.ucdmc.ucdavis.edu,0
Fertility Specialists Medical Group,8010 Frost Street,San Diego,CA,92123,858-505-5500,"Arlene J. Morales, M.D.","Arlene J. Morales, M.D.","Joseph Conaghan, Ph.D., HCLD",http://www.ivfspecialists.com,476
San Diego Fertility Center,11515 El Camino Real,San Diego,CA,92130,858-794-6363,"William P. Hummel, M.D.","William P. Hummel, M.D.","L. Michael Kettel, M.D.",http://www.sdfertility.com,832
Laurel Fertility Care,1700 California Street,San Francisco,CA,94109,415-673-9199,"Collin B. Smikle, M.D.","Collin B. Smikle, M.D.","Marlane J. Angle, Ph.D., HCLD",N/A,644
Pacific Fertility Center,55 Francisco Street,San Francisco,CA,94133,888-834-3095,"Carolyn Givens, M.D.","Philip E. Chenette, M.D.","Joseph Conaghan, Ph.D., HCLDELD",http://www.infertilitydoctor.com,2532
UCSF Center for Reproductive Health,2356 Sutter Street,San Francisco,CA,94115,415-353-3040,"MarcelleI Cedars, M.D.","MarcelleI Cedars, M.D.","Shehua Shen, M.D., ELD",http://www.ucsfivf.org,2808
Fertility Physicians of Northern California,2581 Samaritan Drive,San Jose,CA,95124,408-358-2500,"G. David Adamson, M.D.","G. David Adamson, M.D.","Marina Gvakharia, M.D., Ph.D., HCLD",http://www.fpnc.com,1472
"Alex Steinleitner, M.D., Inc",21 Santa Rosa Street,San Luis Obispo,CA,93405,805-543-2228,"Alex Steinleitner, M.D.","Alex Steinleitner, M.D.","David Meldrum, M.D.",http://www.ccfertility.com,244
Reproductive Science Center of the San Francisco Bay Area,3160 Crow Canyon Rd,San Ramon,CA,94583,925-867-1800,Sade Salako CPA MBA,"Louis N. Weckstein, M.D","Kristen A. Ivani, Ph.D., HCLD",http://wwwrscbayarea.com,2420
"Parker, Rosenman, Rodi Gyn Inf Med Grp",1450 Tenth Street,Santa Monica,CA,90401,310-451-8144,"Ingrid A. Rodi, M.D.","Ingrid A. Rodi, M.D.","Richard R. Chacon, BS, ELD","http://www,rodimd.com",204
Advanced Fertility Associates Medical Group Inc,1111 Sonoma Avenue,Santa Rosa,CA,95405,707-575-5831,"Jennifer V Ratcliffe, MD, PhD","Jennifer V Ratcliffe, MD, PhD","Jana Hajnovicova ,MS, ELD",N/A,472
The Valley Center for Reproductive Health,13320 Riverside Drive,Sherman Oaks,CA,91423,818-986-1648,"Tina Koopersmith, M.D.","Tina Koopersmith, M.D.","David L. Hill, Ph.D., HCLD, ELD",N/A,152
Stanford University IVF/ART Program,900 Welch Road,Stanford,CA,94304,650-723-1943,"Amin Milki, M.D.","Valerie L. Baker, M.D.","Barry R. Behr, Ph.D., HCLD",http://www.stanfordivf.com,2176
Center for Fertility and Gynecology,18370 Burbank Boulevard,Tarzana,CA,91356,818-881-9800,Michael Vermesh MD,Michael Vermesh MD,Michael Vermesh MD,http://www.vermesh.com,740
Tree of Life Center,18370 Burbank Boulevard,Tarzana,CA,91356,818-344-8522,"Snunit Ben-Ozer, M.D.","Snunit Ben-Ozer, M.D.","David L. Hill, Ph.D., HCLD, ELD",http://www.tlcfertility.com,108
Fertility & Surgical Associates of California,325 Rolling Oaks Drive,Thousand Oaks,CA,91361,805-778-1122,"Gary D. Hubert, M.D.","Gary D. Hubert, M.D.","Man Li, M.D., Ph.D., HCLD, ELD",http://www.fertilityassociates.com,1308
Pacific Reproductive Center,3720 Lomita Boulevard,Torrance,CA,90505,310-376-7000,"Rifaat D. Salem, M.D., Ph.D.","Rifaat D. Salem, M.D., Ph.D.","Zhihong Yang, DVM, Ph.D.",http://www.prc-ivf.com,1416
Reproductive Partners - Westminster,13950 Milton Ave,Westminster,CA,92683,714-702-3000,"Bill Yee, M.D.","Bill Yee, M.D.","Bill Yee, M.D.",http://www.2reproduce.com,576
Acacio Fertility Center,27882 Forbes Road,Laguna Niguel,CA,92677,949-249-9200,"Sylvia Parrett, R.N., MSW","Brian Acacio, M.D.","Teresa Wiesak, Ph.D., HCLD",N/A,0
Pacific Fertility Center - Los Angeles,10421 Wilshire Blvd,Los Angeles,CA,90024,310-209-7700,"Catherine De Ugarte, M.D.","Catherine De Ugarte, M.D.","Vicken Sahakian, M.D.",Dr.DeUgarteistheOnlySARTPhysicianatthisClinic,0
Society Hill Reproductive Medicine,101 Rowland Way,Novato,CA,94945,415-893-0391,"Danielle Lane, M.D.","Danielle Lane, M.D.","Marlane Angle, M.D.",www.goldengatefertilitycenter.com,0
University of Colorado Health Sciences Center,1635 North Ursula Street,Aurora,CO,80010-051080,720-848-1690,"Wiliam D. Schlaff, M.D.","Ruben J. Alvero, M.D.","Shunping Wang, Ph.D.",http://www.coloradoinfertilitydoctors.com,264
The Fertility Center of Colorado,6160 Tuft Boulevard,Colorado Springs,CO,80923,719-636-0080,"Eric H. Silverstein, M.D.","Eric H. Silverstein, M.D.","J. Michael Wilson, Ph.D., HCLD",http://www.fertilitycentercolorado.com,144
Colorado Reproductive Endocrinology,4600 E Hale Parkway,Denver,CO,80220,303-321-7115,"Susan W. Trout, M.D.","Susan W. Trout, M.D.","Jonathan Van Blerkom, Ph.D.",http://www.coloradofertility.com,324
Rocky Mountain Center for Reproductive Medicine,1080 East Elizabeth,Fort Collins,CO,80524,970-493-6353,"Kevin E. Bachus, M.D.","Kevin E. Bachus, M.D.","Shari E. Olson, Ph.D., HCLD",http://www.drbachus.com,168
Conceptions Reproductive Associates,271 West County Line Road,Littleton,CO,80129-1901,303-794-0045,"Michael S. Swanson, M.D.","Mark R. Bush, M.D.","Barry Behr, Ph.D., H.C.L.D.",http://www.conceptionsrepro.com,940
Colorado Center for Reproductive Medicine,10290 Ridge Gate Circle,Lone Tree,CO,80124,303-788-8300,"William B. Schoolcraft, M.D.","William B. Schoolcraft, M.D.","William B. Schoolcraft, M.D.",http://www.colocrm.com,1880
"Rocky Mountain Fertility Center, P.C.",9235 Crown Crest Blvd.,Parker,CO,80138,303-999-3877,"Deborah Smith, M.D.","Deborah Smith, M.D.","Oscar Perez, Ph.D., HCLD",http://www.rockymountainfertility.com,224
Connecticut Fertility Associates,4920 Main Street,Bridgeport,CT,6606,203-373-1200,"Michael B. Doyle, M.D.","Michael B. Doyle, M.D.","Glenn R. Moodie, Ph.D., HCLD",http://www.ConnecticutFertility.com,564
The Center for Advanced Reproductive Services,263 Farmington Avenue,Farmington,CT,06030-6224,860-679-4580,"John C. Nulsen, M.D.","John C. Nulsen, M.D.","Claudio A. Benadiva, M.D.",http://www.fertilitycenter-uconn.org,4004
"Greenwich Fertility and IVF Center, P.C.",55 Holly Lane,Greenwich,CT,6830,203-863-2990,"Barry R. Witt, M.D.","Barry R. Witt, M.D.","Lewis C. Krey, Ph.D.",N/A,464
Yale University IVF Program,150 Sargent Drive,New Haven,CT,6511,203-785-4708,"Pasquale Patrizio, M.D., MBE, HCLD","Pasquale Patrizio, M.D., MBE, HCLD","Dionisios (Denny) Sakkas, Ph.D.",http://www.yalerei.org,1888
Reproductive Medicine Associates of Connecticut,10 Glover Avenue,Norwalk,CT,6850,203-750-7400,"Richard T. Scott, Jr., M.D.","Mark Leondires, M.D.","Richard T. Scott, Jr., M.D.",http://www.rmact.com,2200
New England Fertility Institute,1275 Summer Street,Stamford,CT,6905,203-325-3200,"Gad Lavy, M.D.","Gad Lavy, M.D.","Gad Lavy, M.D.",http://www.nefertility.com,780
The Stamford Hospital,Shelburne & West Broad Streets,Stamford,CT,6904,203-329-7559,"Frances W. Ginsburg, M.D.","Frances W. Ginsburg, M.D.","GadLavy,M.D.",N/A,88
"ART Institute of Washington, Inc.",6900 Georgia Avenue,Washington,DC,20307-5001,202-782-9537,"Mark D. Payton, M.D.","James H. Segars, M.D.","Jacques Cohen, Ph.D., HCLD",http://www.wramc.amedd.army.mil/departments/gyn/re,1296
Columbia Fertility Associates,2440 M Street NW,Washington,DC,20037,202-293-6567,"Maurice Butler, M.D.","Safa M. Rifka, M.D.","Yongxin (Sammy) Sun, Ph.D.",http://www.columbiafertility.com,2136
George Washington University,2150 Pennsylvania Avenue NW,Washington,DC,20037,202-741-2520,"Paul R. Gindoff, M.D.","Paul R. Gindoff, M.D.","Anil Dubey, Ph.D., HCLD",http://www.gwdocs.com,1116
"James A. Simon, M.D., PC",1850 M Street Northwest,Washington,DC,20036,202-293-1000,"James A. Simon, M.D.","James A. Simon, M.D.","Anil K. Dubey, Ph.D., HCLD",N/A,24
Reproductive Associates of Delaware,4735 Ogletown-Stanton Road,Newark,DE,19713,302-623-4242,"Barbara McGuirk, M.D.","Ronald F. Feinberg, M.D.","Michael J. Tucker, Ph.D., HCLD",http://www.ivf-de.org,928
Boca Fertility,875 Meadows Road,Boca Raton,FL,33486,561-368-5500,"Moshe R. Peress, M.D.","Moshe R. Peress, M.D.","Michael B. Matilsky, Ph.D., HCLD",http://www.bocafertility.com,336
Palm Beach Fertility Center,9291 Glades Road,Boca Raton,FL,33434,561-477-7728,"Mark S. Denker, M.D.","Mark S. Denker, M.D.","Hisham F. Greiss, M.D., Ph.D., HCLD",http://www.palmbeachfertility.com,296
"Reproductive Health Associates, P.A.",2695 Ulmerton Road,Clearwater,FL,33762,727-572-5300,"Catherine L. Cowart, M.D.","Catherine L. Cowart, M.D.","Bill Clark, M.S.",N/A,164
University of Florida Women's Health at Magnolia Parke,3951 NW 48th Terrace,Gainesville,FL,32606,352-265-6200,"R. Stan Williams, M.D.","Orhan Bukulmez, M.D.","Kenneth Drury, Ph.D.",http://www.obgyn.ufl.edu/endo,292
Assisted Fertility Program of North Florida,3627 University Boulevard South,Jacksonville,FL,32216,904-398-1473,"Marwan M. Shaykh, M.D.","Marwan M. Shaykh, M.D.","Gary W. Gregory, ELD",N/A,288
Florida Institute for Reproductive Medicine,836 Prudential Drive,Jacksonville,FL,32207,904-399-5620,"Kevin L. Winslow, M.D.","Kevin L. Winslow, M.D.","Dunsong Yang, M.D., HCLD",http://www.firmjax.com,1520
Jacksonville Center for Reproductive Medicine,7051 Southpoint Parkway,Jacksonville,FL,32216,904-493-2229,"Michael D. Fox, M.D.","Michael D. Fox, M.D.",Gary Gregory BS ELD,N/A,808
IVF Florida,2960 North SR7,Margate,FL,33063,954-247-6200,"David I. Hoffman, M.D.","David I. Hoffman, M.D.","Yunxia (Sunny) Hu, Ph.D., HCLD, ELD",http://www.ivfflorida.com,2440
Viera Fertility Center/Fertility and Reproductive Medicine Center for Women,3160 Alzante Circle,Melbourne,FL,32940,321-751-4673,"Diran Chamoun, M.D.","Diran Chamoun, M.D.",N/A,N/A,188
Fertility & IVF Center of Miami,8950 N. Kendall Drive,Miami,FL,33176,305-596-4173,"Michael H. Jacobs, M.D.","Michael H. Jacobs, M.D.","Jeffrey J. Knickerbocker, Ph.D. HCLD",http://www.miami-ivf.com,1392
Palmetto Fertility Center of South Florida,7100 West 20th Avenue,Miami,FL,33016,305-558-0808,"Michael D. Graubert, M.D.","Michael D. Graubert, M.D.","Sylvie Roberge, Ph.D., HCLD",http://www.fertilitymiami.com,516
S. Florida Institute for Reproductive Medicine,7300 SW 62nd Pl,Miami,FL,33143,305-662-7901,"Juergen Eisermann, M.D.","Maria Bustillo, M.D.",Ineabelle Collazo TSELD,http://www.ivfmd.com,1992
University of Miami Infertility Center,1400 NW 12th Avenue,Miami,FL,33136,305-325-5757,"George R. Attia, M.D.","George R. Attia, M.D.","Sung Mi Choi, MS",N/A,368
Center for Reproductive Medicine PA,3435 Pinehurst Avenue,Orlando,FL,32804,407-740-0909,"Gary W. DeVane, M.D.","Randall A. Loy, M.D.","B. K. Gangrade, Ph.D., HCLD",http://www.ivforlando.com,1516
"New Leaders in Fertility & Endocrinology, LLC",4400 Bayou Boulevard,Pensacola,FL,32504,850-857-3733,"Barry A. Ripps, M.D.","Barry A. Ripps, M.D.","Brijinder S. Minhas, Ph.D., HCLD, ELDMBA",http://www.Fertilityleaders.com,596
Center for Advanced Reproductive Endocrinology,201 North Pine Island Road,Plantation,FL,33324,954-584-2273,"Mick Abae, M.D.","Mick Abae, M.D.","Harold F. Rodriguez, Ph.D., HCLD",http://www.care-life.com,336
The Reproductive Medicine Group,5245 East Fletcher Avenue,Tampa,FL,33617,813-676-8844,"Marc Bernhisel, M.D.","Marc Bernhisel, M.D.","Marc Bernhisel, M.D.",http://www.floridafertility.com,1912
University of South Florida IVF,2A Columbia Drive,Tampa,FL,33606,813-259-0962,"Shayne M. Plosker, M.D.","Shayne M. Plosker, M.D.","Ying Ying, Ph.D., HCLD",http://www.usfivf.com,584
Florida Institute for Reproductive Sciences and Technologies (FIRST),2300 North Commerce Parkway,Weston,FL,33326-3257,954-217-3456,"Minna Ruth Selub, M.D.","Minna Ruth Selub, M.D.","Yalcin Yavas, DVM, Ph.D., HCLD",http://www.FIRSTivf.net,116
Fertility Center of Assisted Reproduction and Endocrinology,5931 Brick Court,Winter Park,FL,32792,407-672-1106,"Mark P. Trolice, M.D.","Mark P. Trolice, M.D.","David D. Heinkel, BA, ELD",http://www.myfertilitycare.com,444
Center for Natural IVF,600 Heritage Drive,Jupiter,FL,33458,561-354-1525,"Gene F. Manko, M.D.","Gene F. Manko, M.D.","Sunny Hu, Ph.D., HCLD",N/A,0
Atlanta Center for Reproductive Medicine,5909 Peachtree Dunwoody Road,Atlanta,GA,30328,770-928-2276,"Lisa A. Hasty, M.D.","James P. Toner, M.D., Ph.D.","Chad A. Johnson, Ph.D., HCLD",http://www.acrm.com,2008
Emory Reproductive Center,550 Peachtree Street,Atlanta,GA,30308,404-778-3401,"Donna R. Session, M.D.","Donna R. Session, M.D.","Weirong Shang, Ph.D., HCLD",http://www.emoryivf.org,0
Georgia Reproductive Specialists,5445 Meridian Mark Road,Atlanta,GA,30342,404-843-2229,"Mark Perloe, M.D.","Carolyn R. Kaplan, M.D.","Paula C. Morton, B.S., ELD",http://www.ivf.com,1136
Reproductive Biology Associates,1150 Lake Hearn Drive,Atlanta,GA,30342,404-256-6972,"Hilton I. Kort, M.D.","Daniel B. Shapiro, M.D.","Zsolt Peter Nagy, M.D., Ph.D.",N/A,2396
MCG Reproductive Medicine and Infertility Associates,810 Chafee Street,Augusta,GA,30904,706-722-4434,"Adelina M. Emmi, M.D.","Adelina M. Emmi, M.D.","Weirong Shang, Ph.D.",http://www.ivfaugusta.com,84
Servy Institute for Reproductive Endocrinology,812 Chafee Avenue,Augusta,GA,30904,706-724-0228,"Edouard J. Servy, M.D.","Edouard J. Servy, M.D.","Weirong Shang, Ph.D.",N/A,96
Central Georgia Fertility Institute,4035 Elnora Drive,Macon,GA,31210,478-757-7888,"William J. Butler, M.D.","William J. Butler, M.D.","Abdelmoneim I. Younis, Ph.D., HCLD",http://www.centralgafertility.com,80
Georgia Center for Reproductive Medicine,5354 Reynolds Street,Savannah,GA,31405,912-352-8588,"Patrick L. Blohm, M.D.","Patrick L. Blohm, M.D.","Tao Tao, Ph.D., HCLD",N/A,0
Advanced Reproductive Center of Hawaii,1319 Punahou Street,Honolulu,HI,96826,808-949-6611,"Christopher T. F. Huang, M.D.","Christopher T. F. Huang, M.D.","Thomas T. F. Huang Jr., Ph.D., HCLD",N/A,512
Hawaii Reproductive Center,1132 Bishop Street,Honolulu,HI,96813,808-537-1164,"Erin Nakayama, RNBSN","Celia E. Dominguez, M.D.","Charles E. Cornwell, lMSELD",http://hawaiireproductivecenter.com,0
Pacific IVF Institute,1319 Punahou Street,Honolulu,HI,96826,808-946-2226,"Philip I. McNamee, M.D.","Thomas S. Kosasa, M.D.","Thomas Huang, Ph.D., HCLDELD",http://www.pacificinvitro.com,932
Tripler Army Medical Center,1 Jarrett White Road,Honolulu,HI,96859-5000,808-433-6845,"Richard S. Lucidi, M.D.","Richard S. Lucidi, M.D.","Thomas Huang, Ph.D., HCLDELD",N/A,76
"Advanced Reproductive Medicine and Gynecology of Hawaii, Inc.",407 Uluniu Street,Kailua,HI,96734,808-347-6442,"John L. Frattarelli, M.D.","John L. Frattarelli, M.D.","Thomas T. F. Huang, Jr., Ph.D., HCLD",http://www.armghawaii.com,0
Fertility Institute of Hawaii,"1401 South Beretania Street, Suite 250",Honolulu,HI,96814,808-545-2800,"John L. Frattarelli, M.D.","John L. Frattarelli, M.D.","John L. Frattarelli, M.D.",http://www.ivfcenterhawaii.com,248
"Mid-Iowa Fertility, P.C.",1371 NW 121st Street,Clive,IA,50325,515-222-3060,"Donald C. Young, D.O.","Donald C. Young, D.O.","Kepler Johnson, ELD",http://www.midiowafertility.com,1272
Center for Advanced Reproductive Care,200 Hawkins Drive,Iowa City,IA,52242,319-356-8483,"Bradley Van Voorhis, M.D.","Bradley Van Voorhis, M.D.","Amy E.T. Sparks, Ph.D., HCLD",http://www.uihealthcare.com/repromed,1312
Idaho Center for Reproductive Medicine,111 Main Street,Boise,ID,83702,208-342-5900,"Russell A. Foulk, M.D.","Cristin C. Slater, M.D.","Russell A. Foulk, M.D.",N/A,808
Rush-Copley Center for Reproductive Health,2020 Ogden Avenue,Aurora,IL,60504,630-978-6254,"Zvi Binor, M.D.","Zvi Binor, M.D.","Richard G. Rawlins, Ph.D., HCLD",N/A,0
Center for Reproductive Medicine & Fertility,South Maryland Avenue,Chicago,IL,60637,773-702-6642,"Helen H. Kim, M.D.","Helen H. Kim, M.D.","Alan B. Dudkiewicz, Ph.D., HCLD, ELD",http://www.chicagofertility.org,868
Fertility Centers of Illinois - River North IVF,900 North Kingsbury,Chicago,IL,60610,312-222-8200,"Aaron Lifchez, M.D.","Angeline Beltsos, M.D.","Michael J. Tucker, Ph.D., HCLD",http://www.fcionline.com,5636
Northwestern University,675 N. St. Clair,Chicago,IL,60611,312-695-7269,"Ralph R. Kazer, M.D.","Edmond Confino, M.D.","John X. Zhang, Ph.D., HCLD",N/A,2032
The Rinehart-Coulam Center,233 East Erie Street,Chicago,IL,60611,847-869-7777,"John S. Rinehart, M.D., Ph.D., JD","John S. RInehart, M.D., Ph.D., JD","Carli W. Chapman, BSELD",N/A,172
University of Illinois at Chicago (UIC),1801 West Taylor Street,Chicago,IL,60612,312-996-9820,"Humberto Scoccia, M.D.","Humberto Scoccia, M.D.","Nicola J. Winston, Ph.D., HCLD",http://www.uicivf.org,408
Midwest Fertility Center,4333 Main Street,Downers Grove,IL,60515,630-810-0212,"Amos E. Madanes, M.D.","Amos E. Madanes, M.D.","Hisham F. Greiss, M.D., Ph.D., HCLD",http://www.IVF.us,444
The Rinehart Center for Reproductive Medicine,2500 Ridge Avenue,Evanston,IL,60201,847-869-7777,"John S. Rinehart, M.D., Ph.D.","John S. Rinehart, M.D., Ph.D.","Carli W. Chapman, B.S.",N/A,1084
Advanced Fertility Center of Chicago,30 Tower Court,Gurnee,IL,60031,847-662-1818,"Richard Sherbahn, M.D.","Richard Sherbahn, M.D.","Richard Sherbahn, M.D.",http://www.advancedfertility.com,1436
Highland Park IVF Center,767 Park Avenue West,Highland Park,IL,60035,847-266-3535,"Edward L. Marut, M.D.","Edward L. Marut, M.D.","Colleen Wagner Coughlin, M.S.",http://www.highlandparkivf.com,5624
HinsdaleCenterforReproduction,121 North Elm Street,Hinsdale,IL,60521,630-856-3535,"Michael J. Hickey, M.D.","Michael J. Hickey, M.D.","Jianjun Zhu, Ph.D., HCLD",http://www.hinsdale-ivf.com,180
"Karande and Associates, SC",1585 North Barrington Rd,Hoffman Estates,IL,60194,847-884-8884,"Vishvanath C. Karande, M.D.","Vishvanath C. Karande, M.D.","William D. Hazlett, Ph.D.",N/A,1516
Reena Jabamoni MD SC,1585 N Barrington Road,Hoffman Estates,IL,60194,630-843-7090,"Reena Jabamoni, M.D.","Reena Jabamoni, M.D.","Yuri Verlinsky, Ph.D.",http://www.reenajabamoni.com,160
Reproductive Health Specialists,744 Essington Road,Joliet,IL,60435,815-730-1100,"Marek W. Piekos, M.D.","Marek W. Piekos, M.D.","Marek W. Piekos, M.D.",http://www.reproductivespecialist.com,220
IVF1,636 Raymond Drive,Naperville,IL,60563,630-357-6540,"Randy S. Morris, M.D.","Randy S. Morris, M.D.","Yuri Verlinsky, Ph.D.",http://www.ivf1.com,1236
The Fertility Institute at Edward,120 Osler Drive,Naperville,IL,60540,630-428-2229,"Charles E. Miller, M.D.","Charles E. Miller, M.D.","Carli W. Chapman, B.S.",http://www.charlesmillermd.org,1356
Oak Brook Fertility Center,2425 West 22nd St,Oak Brook,IL,60523,630-954-0054,"W. Paul Dmowski, M.D., Ph.D.","W. Paul Dmowski, M.D., Ph.D.","Jianchi Ding, Ph.D., HCLD",http://www.oakbrookfertility.com,596
Reproductive Health and Fertility Center,973 Featherstone Road,Rockford,IL,61107,815-986-3737,"Jacek W. Graczykowski, M.D.","Chiravudh Sawetawan, M.D.","Chiravudh Sawetawan, M.D.",http://www.fres-rhfc.com,448
North Shore Fertility,4250 Dempster,Skokie,IL,60076,847-763-8850,"Susan A. Davies, M.D.","Susan A. Davies, M.D.","Yury Verlinsky, Ph.D.",N/A,1136
Reproductive Endocrinology Associates,340 W. Miller St.,Springfield,IL,62702,217-523-4700,"Mary Ann McRae, M.D.","Mary Ann McRae, M.D.","Morris Cooper, Ph.D., HCLD",http://www.drmcrae-reproendoassoc.yourmd.com,328
"Seth Levrant, M.D., PC",16345 S. Harlem Avenue,Tinley Park,IL,60477,708-532-7017,"Seth G. Levrant, M.D.","Seth G. Levrant, M.D.","Rajasingam S. Jeyendran, DVM, Ph.D.",http://www.sethlevrant-md.mymedfusion.com,376
"Southern Illinois University School of Medicine, Fertility and IVF Center",751 N. Rutledge,Springfield,IL,62794-9637,217-545-2229,"J. Ricardo Loretde Mola, M.D.","J. Ricardo Loretde Mola, M.D.","Mary McAsey, PhD, HCLD/ELD",N/A,316
Jarrett Fertility Group LLC,11725 Illinois St,Carmel,IN,46032,317-814-4110,"John C. JarrettII, M.D.","John C. JarrettII, M.D.","James R. Schwartz, Ph.D., HCLD",N/A,1384
Midwest Fertility Specialists,12188-A North Meridian,Carmel,IN,46032,317-571-1637,"Laura M. Reuter, M.D.","Laura M. Reuter, M.D.","Glen K. Adaniya, Ph.D, HCLD",http://www.midwestfertility.com,1428
Advanced Fertility Group,1222 Professional Boulevard,Evansville,IN,47714,812-469-4920,"William L. Gentry, M.D.","William L. Gentry, M.D.","Elizabeth S. Critser, Ph.D., HCLD",N/A,0
Advanced Fertility Group,201 North Pennsylvania Parkway,Indianapolis,IN,46280,317-817-1300,"William L. Gentry, M.D.","William L. Gentry, M.D.","Carole C. Wegner, Ph.D., HCLD",N/A,0
Community Reproductive Endocrinology,7250 Clearvista Drive,Indianapolis,IN,46256,317-621-0600,"David E. Carnovale, M.D.","David E. Carnovale, M.D.","Jeff Boldt, Ph.D., HCLD",N/A,152
"Family Beginnings, PC",8435 Clearvista Place,Indianapolis,IN,46256,317-595-3665,"James G. Donahue, M.D.","James G. Donahue, M.D.","Sandra K. Malott, BS, MT, ELD",http://wwww.ivf-indiana.com,524
Indiana University IVF Program,550 N. University Blvd.,Indianapolis,IN,46202,317-274-4875,"Marguerite K. Shepard, M.D.","Marguerite K. Shepard, M.D.","Carole C. Wegner, Ph.D., HCLD",http://www.iuobgyn.com,84
Reproductive Care of Indiana,201 Pennsylvania Parkway,Indianapolis,IN,46280,317-817-1800,"Michael A. Henry, M.D.","Michael A. Henry, M.D.","Carole Wegner, Ph.D., HCLD",http://www.reprocareindiana.com,0
Women's Specialty Health Centers,9660 East 146th Street,Noblesville,IN,46060,317-774-1200,"David S. McLaughlin, M.D.","David S. McLaughlin, M.D.","Andrew M. Weston, Ph.D., HCLD",http://www.familyjoy.net,84
Center for Advanced Reproductive Medicine,10777 Nall Ave.,Kansas City,KS,66212,913-588-6261,"S. Samuel Kim, M.D.","S. Samuel Kim, M.D.","Kimball O. Pomeroy, Ph.D., HCLD",N/A,240
"Midwest Reproductive Center, PA",20375 West 151st Street,Olathe,KS,66061,913-780-4300,"Dan Lee Gehlbach, MD","Dan Lee Gehlbach, MD","Jonathan P. Richards, MS, ELD",N/A,428
Reproductive Resource Center of Greater Kansas City,12200 W 106 St,Overland Park,KS,66215,913-894-2323,"J. Michael Wilson, Ph.D., HCLD","Celeste Brabec, M.D.","J. Michael Wilson, Ph.D., HCLD",http://www.rrc.com,1088
Reproductive Medicine and Infertility,8800 West 75th Street,Shawnee Mission,KS,66204,913-432-7161,"Daniel L. Stewart, M.D.","Daniel L. Stewart, M.D.","Andrew M. Weston, Ph.D., HCLD",http://www.rmikc.com,436
Center for Reproductive Medicine,9300 East 29th Street North,Wichita,KS,67226,316-687-2112,"Bruce L. Tjaden, D.O.","Bruce L. Tjaden, D.O.","G. David Ball, Ph.D.",N/A,460
University Ob/Gyn Associates,315 East Broadway,Louisville,KY,40202,502-271-5999,"Steven T. Nakajima, M.D.","Steven T. Nakajima, M.D.","Andrew M. Weston, Ph.D., HCLD",http://www.kyinfertility.com,568
A Woman's Center for Reproductive Medicine,9000 Airline Highway,Baton Rouge,LA,70815,225-926-6886,"Bobby W. Webster, M.D.","Bobby W. Webster, M.D.","Richard A. Cochran, Ph.D., HCLD",http://ivflouisiana.com,336
Fertility and Women's Health Center of Louisiana,4630 Ambassador Caffery Parkway,Lafayette,LA,70508,337-989-8795,"John M. Storment, M.D.","John M. Storment, M.D.","James R. Broussard, Ph.D.",N/A,448
The Fertility Institute of New Orleans,800 North Causeway Boulevard,Mandeville,LA,70448,985-892-7621,"Richard P. Dickey, M.D., Ph.D.","Richard P. Dickey, M.D., Ph.D.","J. W. Edward Wortham, Jr., Ph.D.",http://www.fertilityinstitute.com,1312
Center for Fertility & Reproductive Health,2401 Greenwood Road,Shreveport,LA,71103,318-212-8270,"David T. Vandermolen, M.D.","David T. Vandermolen, M.D.","Mahendran Mahadevan, Ph.D., HCLD",N/A,388
Brigham & Women's ART Center,75 Francis St,Boston,MA,2115,617-732-7908,"Mark D. Hornstein, M.D.","Elizabeth S. GInsburg, M.D.","Catherine Racowsky, Ph.D.",http://www.brighamandwomens.org/reproductivemedici,5460
Vincent IVF Unit,55 Fruit Street,Boston,MA,2114,617-726-8868,"Thomas L. Toth, M.D.","Thomas L. Toth, M.D.","Diane L. Wright, Ph.D., HCLD",http://www.mgh.harvard.edu/ivf,2808
Reproductive Science Center,1 Forbes Road,Lexington,MA,2421,800-858-4832,"Richard Dietz ,MBA","Samuel C. Pang, M.D.","Kathryn J. Go, Ph.D.,HCLD",http://www.rscnewengland.com,9084
Fertility Centers of New England,20 Pond Meadow Dr.,Reading,MA,1867,781-942-7000,"Joseph A. Hill, M.D.","R. Ian Hardy, M.D., Ph.D.","Lynette A. Scott, Ph.D., HCLD",http://www.fertilitycenter.com,2928
Baystate Reproductive Medicine,759 Chestnut Street,Springfield,MA,1199,413-794-5608,"Daniel R. Grow, M.D.","Kelly Lynch, M.D.","Margaret J. Arny, Ph.D. HCLD",http://www.baystatehealth.com/1025/3276/3615,1492
Cardone Reproductive Medicine & Infertility LLC,2 Main Street,Stoneham,MA,2180,781-438-3888,"Vito R. S. Cardone, M.D.","Vito R. S. Cardone, M.D.","R. Douglas Powers, Ph.D., HCLD",N/A,584
Boston IVF,130 Second Avenue,Waltham,MA,2451,781-434-6400,"Derek Larkin, J.D.","Michael M. Alper, M.D.","C. Brent Barrett, Ph.D., HCLD",http://www.bostonivf.com,9840
"Fertility Solutions, P.C./Massachutsetts Fertility Center, L.L.C.",45 Stergis Way,Dedham,MA,2026,781-326-2451,"Ania Kowalik, M.D.","Ania Kowalik, M.D.","Michael A. Lee, M.S., T.S., E.L.D.",N/A,0
Shady Grove Fertility Center at GBMC,6569 N. Charles Street,Baltimore,MD,21204,443-849-2484,"Eugene Katz, M.D.","Eugene Katz, M.D.","Michael Tucker, Ph.D., HCLD",http://www.gbmc.org/fertilitycenter,1980
The Center for Assisted Reproductive Technology at Union Memorial Hospital,201 E. University Parkway,Baltimore,MD,21218,410-554-2683,"Nathan G. Berger, M.D.","Nathan G. Berger, M.D.","Norman H. Dubin, Ph.D., HCLDELD",N/A,0
"Endrika Hinton, M.D.",10751 Falls Road,Lutherville,MD,21093,410-616-7777,"Endrika Hinton, M.D.","Endrika Hinton, M.D.","Yulian Zhao, Ph.D., H.C.L.D.",N/A,0
Johns Hopkins Medical Institute,10753 Falls Road,Lutherville,MD,21093,410-583-2749,"Jairo E. Garcia, M.D.","Jairo E. Garcia, M.D.","Yulian Zhao, Ph.D., H.C.L.D.",http://womenshealth.jhmi.edu,824
Shady Grove Fertility Center,15001 Shady Grove Road,Rockville,MD,20850,301-340-1188,"Michael J. Levy, M.D.","Robert J. Stillman, M.D.","Michael J. Tucker, Ph.D., HCLD",http://www.shadygrovefertility.com,14852
Fertility Center of Maryland,110 West Road,Towson,MD,21204,410-296-6400,"Santiago L. Padilla, M.D.","Santiago L. Padilla, M.D.","Santiago L. Padilla, M.D.",http://www.fertilitycentermd.com,872
University of Michigan Medical Center,500 E Medical Center Drive,Ann Arbor,MI,48109,734-763-4323,"Senait Fisseha, M.D., J.D.","Senait Fisseha, M.D., J.D.","Gary D. Smith, Ph.D., HCLD",N/A,320
Center for Reproductive Medicine and Surgery,300 Park Street,Birmingham,MI,48009,248-593-6990,"Michael S. Mersol-Barg, M.D.","Michael S. Mersol-Barg, M.D.","Michael S. Mersol-Barg, M.D.",http://www.reproductive-medicine.com,444
Michigan Comprehensive Fertility Center,18181 Oakwood Boulevard,Dearborn,MI,48124,313-299-6650,"David M. Magyar, D.O.","David M. Magyar, D.O.","David M. Magyar, D.O.",N/A,440
"Grand Rapids Fertility & IVF, P.C.",555 Midtowne NE,Grand Rapids,MI,49503,616-774-2030,"Douglas C. Daly, M.D.","Douglas C. Daly, M.D.","Douglas C. Daly, M.D.",http://www.grandrapidsfertility.com,212
The Fertility Center,3230 Eagle Park Drive NE,Grand Rapids,MI,49525,616-988-2229,"William G. Dodds, M.D.","William G. Dodds, M.D.","Louise Plante, Ph.D., HCLDELD",http://www.fertilitycentermi.com,1960
IVF Michigan,3950 South Rochester Road,Rochester Hills,MI,48307,248-844-8840,"Mostafa I. Abuzeid, M.D.","Michael H. Fakih, M.D.","Iqbal Khan, Ph.D., HCLD",N/A,2896
University Women's Care IVF - Infertility,26400 West Twelve Mile Road,Southfield,MI,48034,248-352-8200,"Michael P. Diamond, M.D.","Elizabeth E. Puscheck, M.D.","Narendra Joshi, Ph.D.",N/A,220
"Brenda L. Moskovitz, M.D., PC",415 East Maple Road,Troy,MI,48083,248-524-1001,"Brenda L. Moskovitz, M.D.",Michael Mersol Barg MD,"Michael Stahler, Ph.D. HCLD",N/A,80
Henry Ford Medical Center,1500 W Big Beaver,Troy,MI,48084,248-637-4050,"Ronald C. Strickler, M.D.","Ronald C. Strickler, M.D.","Ronald C. Strickler, M.D.",N/A,136
Reproductive Medicine Associates of Michigan,130 Town Center Drive,Troy,MI,48084,248-619-3100,"Richard T. ScottJr., M.D.","Bradley T. Miller, M.D.","Tariq A. Shah, Ph.D., HCLD",http://www.RMAMI.com,964
Michigan Center for Fertility and Women's Health PLC,4700 13 Mile Road,Warren,MI,48092,586-576-0431,"Carole L. Kowalczyk, M.D.","Carole L. Kowalczyk, M.D.","Michael J. Kirk, TSELD",N/A,296
Advanced Reproductive Medicine and Surgery P.C.,"4190 Telegraph Road, Suite 1500",Bloomfield Hills,MI,49302,248-203-0900,"David Brinton, M.D.","Carole Kowalczyk, M.D.","Michael Kirk, B.S., E.L.D.",http://www.armspc.net,260
Midwest Center for Reproductive Health,12000 Elm Creek Boulevard North,Maple Grove,MN,55369,763-494-7700,"Randle S. Corfman, M.D., Ph.D.","Randle S. Corfman, M.D., Ph.D.","Elizabeth A. Williamson, MSELD",http://www.mcrh.com,568
Center for Reproductive Medicine,2800 Chicago Avenue South,Minneapolis,MN,55407,612-863-5390,"Bruce F. Campbell, M.D.","Bruce F. Campbell, M.D.","Douglas Carrell, Ph.D., HCLD",http://www.IVFMinnesota.com,2592
University of Minnesota Physicians,606 24th Ave S,Minneapolis,MN,55454,612-627-4564,"Mark A. Damario, M.D.","Mark A. Damario, M.D.","Christopher DeJonge, Ph.D., HCLD",N/A,1276
Mayo Clinic - Assissted Reproductive Technologies,200 First Street,Rochester,MN,55057,507-284-4520,"Charles C. Coddington, M.D.","Charles C. Coddington, M.D.","Dean E. Morbeck, Ph.D, HCLD",http://www.mayoclinic.org/reproductivemed-rst/,644
Reproductive Medicine & Infertility Associates,2101 Woodwinds Drive,Woodbury,MN,55125,651-222-6050,"Jacques P. Stassart, M.D.","Jacques P. Stassart, M.D.","G. David Ball, Ph.D.",http://www.rmia.com,1292
Center for Reproductive Medicine and Fertility,500 Keene Street,Columbia,MO,65201,573-817-3101,"Danny J. Schust, M.D.","Mira Aubuchon, M.D.","Kathy Sharpe-Timms, Ph.D, HCLD",N/A,80
Mid-Missouri Reproductive Medicine and Surgery,1502 East Broadway,Columbia,MO,65201,573-443-4511,"Gilbert B. Wilshire, M.D.","Steven A. Brody, M.D., Ph.D.","Jaime Sutton, Ph.D., ELD",http://www.missourifertility.com,280
Midwest Women's Healthcare,6400 Prospect,Kansas City,MO,64132,816-444-6888,"Gregory C. Starks, M.D.","Gregory C. Starks, M.D.","J. Michael Wilson, Ph.D., HCLD",N/A,324
Infertility & Reproductive Medicine Center at Washington University School of Medicine,4444 Forest Park Ave.,St. Louis,MO,63108,314-286-2400,"Valerie S. Ratts, M.D.","Randall R. Odem, M.D.","Susan E. Lanzendorf, Ph.D., HCLD, ELD",http://www.infertility.wustl.edu,1492
The Fertility Center at Missouri Baptist Medical Center,3009 North Ballas Road,St. Louis,MO,63131,314-996-7900,"Anthony C. Pearlstone, M.D.","Anthony C. Pearlstone, M.D.","Anthony C. Pearlstone, M.D.",http://www.efertility.com,316
University of Mississippi Medical Center IVF Program,2500 North State Street,Jackson,MS,39216,601-984-5330,"Randall S. Hines, M.D.","Randall S. Hines, M.D.","Victoria M. Sopelak, Ph.D., HCLD, ELD",http://www.ivf.umc.edu,108
"Mississippi Reproductive Medicine, PLLC",1040 River Oaks Drive,Flowood,MS,39232,601-936-3650,"Randall S. Hines, M.D.","Randall S. Hines, M.D.","Gerard Celia, Ph.D., HCLD",N/A,0
NC Center for Reproductive Medicine,400 Asheville Avenue,Cary,NC,27511,919-233-1680,"Sameh K. Toma, M.D.","Sameh K. Toma, M.D.","Hugh C. Hensleigh, Ph.D.",http://www.nccrm.com,696
University of North Carolina School of Medicine,7570 Manning Drive,Chapel Hill,NC,27599-7570,919-966-1150,"Marc Fritz, M.D.","Marc Fritz, M.D.","Stan Beyler, Ph.D., HCLD",http://www.med.unc.edu/obgyn/services_ei.html,432
Carolinas Medical Center,1000 Blythe Blvd.,Charlotte,NC,28203,704-355-3153,"Paul B. Marshburn, M.D.","Bradley S. Hurst, M.D.","Margaret Henault-Papadakis, Ph.D.",http://www.carolinasinfertility.org,604
Reproductive Endocrinology Associates of Charlotte,1524 East Morehead Street,Charlotte,NC,28207,704-343-3400,"Jack L. Crain, M.D.","Jack L. Crain, M.D.",N/A,http://www.reachdrs.com,2140
Duke Fertility Center,5704 Fayetteville Road,Durham,NC,27713,919-572-4673,"David K. Walmer, M.D., Ph.D.","David K. Walmer, M.D., Ph.D.","Douglas J. Raburn, PhD,HCLD",http://www2.mc.duke.edu/ivf,816
ECU Women's Physicians,2160 Herbert Court,Greenville,NC,27834,252-744-3849,"Clifford C. Hayslip, M.D.","Clifford C. Hayslip, M.D.","Chad A. Johnson. Ph.D., HCLD",http://www.ecu.edu/obgyn/endoinf.htm,320
Premier Fertility Center,2783 NC Highway 68,High Point,NC,27265,336-841-7070,"Jeffrey L. Deaton, M.D.","Jeffrey L. Deaton, M.D.","J. David Wininger, Ph.D., HCLD",http://www.premierfertility.com,296
Advanced Reproductive Concepts,9800 W Kincey Avenue,Huntersville,NC,28078,704-947-9000,"Mark L. Jutras, M.D., HCLD","Mark L. Jutras, M.D., HCLD","Mark L. Jutras, M.D., HCLD",http://www.affordable-ivf.com,232
Carolina Conceptions PA,2601 Lake Drive,Raleigh,NC,27607,919-782-5911,"William R. Meyer, M.D.","William R. Meyer, M.D.","J. David Wininger, Ph.D., HCLD",www.carolinaconceptions.com/invitro/in_vitro_ferti,1528
Wake Forest University Center for Reproductive Medicine,Medical Center Boulevard,Winston-Salem,NC,27157-1066,336-716-6476,"Tamer Yalcinkaya, M.D.","Tamer Yalcinkaya, M.D.","Alberto J. Carrillo, Ph.D., HCLD",http://www.wfuivf.com,628
Reproductive Medicine Institute - Merit Care Health Systems,1111 Harwood Drive South,Fargo,ND,58104,701-234-2700,"Steffen P. Christensen, M.D.","Steffen P. Christensen, M.D.","Frank L. Barnes, Ph.D., HCLD",http://www.meritcare.com,376
"Heartland Center for Reproductive Medicine, P.C.",7308 South 142nd Street,Omaha,NE,68138,402-717-4200,"Victoria M. Maclin, M.D.","Victoria M. Maclin, M.D.","Tammie K. Schalue, Ph.D., HCLD",N/A,592
Nebraska Methodist Hospital,8111 Dodge Street,Omaha,NE,68114,402-354-5210,"Carolyn M. Doherty, M.D.","Carolyn M. Doherty, M.D.","Carolyn M. Doherty, M.D.",N/A,952
Dartmouth-Hitchcock Medical Center,1 Medical Center Drive,Lebanon,NH,3756,603-653-9240,"Misty B. Porter, M.D.","Misty B. Porter, M.D.","Judy E. Stern, Ph.D., HCLD, ELD",http://www.dhmc.org/webpage.cfm?site_id=2&org_id=1,624
Center for Advanced Reproductive Medicine & Fertility,4 Ethel Road,Edison,NJ,8817,732-339-9300,"Suna M. Qasim, M.D.","Gregory H. Corsan, M.D.","Bo Feng, Ph.D., HCLD",http://www.infertilitydocs.com,924
North Hudson IVF,385 Sylvan Avenue,Englewood Cliffs,NJ,7632,201-871-1999,"Jane E. Miller, M.D.","Jane E. Miller, M.D.","T. Timothy Smith, Ph.D., HCLD",http://www.north-hudsonivf.com,72
University Reproductive Associates,214 Terrace Avenue,Hasbrouck Heights,NJ,7604,201-288-6330,"Peter McGovern, M.D.","Peter McGovern, M.D.","David H. McCulloh, Ph.D., HCLD",http://www.uranj.com,1028
Shore Institute for Reproductive Medicine,475 Route 70,Lakewood,NJ,8701,732-363-4777,"Allen Morgan, M.D.","Allen Morgan, M.D.",N/A,N/A,352
Princeton Center for Infertility,3131 Princeton Pike,Lawrenceville,NJ,8648,609-895-1114,"Althea O'Shaughnessy, M.D.","Althea O'Shaughnessy, M.D.","Jerome Check, M.D., Ph.D.",N/A,152
Princeton IVF/Delaware Valley Ob/Gyn and Infertility Group,2 Princess Road,Lawrenceville,NJ,8648,609-896-0777,"Seth G. Derman, M.D.","Seth G. Derman, M.D.","Paul Kaplan, Ph.D, HCLD",N/A,508
East Coast Infertility and IVF,200 White Road,Little Silver,NJ,7739,732-758-6511,"Miguel Damien, M.D.","Miguel Damien, M.D.","Frank L. Barnes, Ph.D., HCLD",http://www.eastcoastivf.com,676
Institute for Reproductive Medicine & Science of Saint Barnabas Medical Center ,94 Old Short Hills Road,Livingston,NJ,7039,973-322-8286,"Natalie A. Cekleniak, M.D.","Margaret G. Garrisi, M.D.","John Garrisi, Ph.D.",http://www.sbivf.com,2644
Cooper Institute for Reproductive Hormonal Disorders PC,8002 E Greentree Commons,Marlton,NJ,8053,856-751-5575,"Jung K. Choe, M.D.","Jerome H. Check, M.D., Ph.D.","Jerome H. Check, M.D., Ph.D.",http://www.ccivf.com,3284
Delaware Valley Institute of Fertility & Genetics,6000 Sagemore Drive,Marlton,NJ,8053,856-988-0072,"George S. Taliadouros, M.D.","George S. Taliadouros, M.D.","Sangita K. Jindal, Ph.D., HCLD",http://www.startfertility.com,636
South Jersey Fertility Center,400 Lippincott Drive,Marlton,NJ,8053,856-596-2233,"Robert A. Skaf, M.D.","Robert A. Skaf, M.D.","Robert A. Skaf, M.D.",http://www.sjfert.com,1472
Diamond Institute for Infertility,89 Milburn Avenue,Millburn,NJ,7041,973-761-5600,"Matan Yemini, M.D.","Jesse Hade, M.D., Arie Birkenfeld, M.D.","Heather Yoon, Ph.D., HCLD",http://www.diamondinstitute.com,1000
Reproductive Medicine Associates of New Jersey,111 Madison Avemue,Morristown,NJ,7962,973-971-4600,"Richard T. Scott, Jr., M.D.","Michael Drews, M.D.","Kathleen A. Miller, BCTS",http://www.rmanj.com,4972
The Valley Hospital Fertility Center,1 Valley Health Plaza,Paramus,NJ,7652,201-634-5485,"Margaret M. Robinson, RN","Ali Nasseri, M.D., Ph.D.","Lewis C. Krey, Ph.D.",N/A,1040
IVF New Jersey,81 Veronica Avenue,Somerset,NJ,8873,732-220-9060,"Michael C. Darder, M.D.","Michael C. Darder, M.D.","Susan Treiser, M.D., Ph.D.",N/A,2032
"Reproductive Science Center of New Jersey, PA",4000 Route 66,Tinton Falls,NJ,7753,732-918-2500,"William F. Ziegler, D.O.","William F. Ziegler, D.O.","Sangita K. Jindal, Ph.D., HCLD",N/A,800
"Louis R. Manara, D.O.",200 Route 73 North,Voorhees,NJ,8043,856-767-0009,"Louis R. Manara, D.O.","Louis R. Manara, D.O.","Louis R. Manara, D.O., HCLD",http://www.louismanara.com,412
"North Jersey Fertility Associates, LLC",57 Willowbrook Boulevard,Wayne,NJ,7470,973-754-4055,"Mark X. Ransom, M.D., HCLD","Mark X. Ransom, M.D., HCLD","Mark X. Ransom, M.D., HCLD",N/A,408
Fertility Institute of New Jersey,400 Old Hook Road,Westwood,NJ,7675,201-666-4200,"Daniel Navot, M.D.","Daniel Navot, M.D.","Daniel Navot, M.D.",N/A,728
Center for Reproductive Medicine of New Mexico,201 Cedar St.,Albuquerque,NM,87106,505-247-3333,"D. James Thompson, M.D.","D. James Thompson, M.D.","Michael l. Reed, Ph.D., HCLD",www.newmexicofertility.com,624
Fertility Center of Las Vegas,8851 W Sahara,Las Vegas,NV,89117,702-254-1777,"Bruce S. Shapiro, M.D.","Bruce S. Shapiro, M.D.","Bruce S. Shapiro, M.D.",N/A,1116
Nevada Fertility CARES,653 Town Center Drive,Las Vegas,NV,89144,702-341-6616,"Rachel A. McConnell, MD","Rachel A. McConnell, MD","Salah E. Abdelgadir, Ph.D., HCLD",http://www.nfcares.com,628
Nevada Center for Reproductive Medicine,645 Sierra Rose Drive,Reno,NV,89511,775-828-1200,"Russell Foulk, M.D.","Russell Foulk, M.D.","Russell Foulk, M.D.",http://www.nevadafertility.com,484
"Albany IVF, Fertility & Gynecology",349 Northern Boulevard,Albany,NY,12204,518-434-9759,"Peter M. Horvath, M.D.","Peter M. Horvath, M.D.","Peter M. Horvath, M.D.",http://www.albanyivf.com,644
Genesis Fertility & Reproductive Medicine,13558 4th Street,Brooklyn,NY,11228,718-283-8600,"Richard V. Grazi, M.D.","Richard V. Grazi, M.D.","Michael A. Lee, MSTSELD",http://www.genesisfertility.com,1460
The Fertility Institute at New York Methodist Hospital,506 Sixth Street,Brooklyn,NY,11215,718-780-5065,"George D. Kofinas, M.D.","George D. Kofinas, M.D.","George D. Kofinas, M.D.",http://www.kofinasfertility.com,888
Infertility & IVF Medical Associates of Western NY,4510 Main Street,Buffalo,NY,14226,716-839-3057,"Michael W. Sullivan, M.D.","Michael W. Sullivan, M.D.","Hemlata Bhakoo, Ph.D., HCLDELD",http://www.buffaloivf.com,988
"Hudson Valley Fertility, PLLC",400 Westage Business Center Drive,Fishkill,NY,12524,845-765-0125,"Daniel W. Levine, M.D.","Daniel W. Levine, M.D.","Daniel W. Levine, M.D.",N/A,0
Institute for Reproductive Medicine and Health of Montefiore Medical Center,141 South Central Avenue,Hartsdale,NY,10530,914-997-1060,"Harry J. Lieman, M.D.","Harry J. Lieman, M.D.","Sangita K. Jindal, Ph.D., HCLD",http://www.montefiore.org/ivf,692
North Shore University Hospital,300 Community Drive,Manhasset,NY,11030,516-562-2229,"Gerald Scholl, M.D.","Avner Hershlag, M.D.","Huai L. Feng, Ph.D., HCLDELD",http://www.northshorelijivf.com,1764
Long Island IVF,8 Corporate Center Drive,Melville,NY,11747,631-752-0606,"Daniel Kenigsberg, M.D.","DanielKenigsberg,M.D.","GlennR.Moodie,Ph.D.,HCLD",http://www.longislandivf.com,1460
Reproductive Specialists of New York LLP,200 Old Country Road,Mineola,NY,11501,516-739-2100,"Gabriel San Roman, M.D.","Gabriel San Roman, M.D.","Gabriel San Roman, M.D.",http://www.rsofny.com,3900
Westchester Reproductive Medicine,344 East Main Street,Mt Kisco,NY,10549,914-218-8955,"Rachel A. Bennett, M.D.","Rachel A. Bennett, M.D.","T. Timothy Smith, Ph.D., HCLD",http://www.WestchesterReproductiveMedicine.com,152
Advanced Fertility Services,1625 Third Avenue,New York,NY,10128,212-369-8700,"Hugh D. Melnick, M.D.","Hugh D. Melnick, M.D.","Kantilal H. Thanki, Ph.D.",N/A,1252
American Fertility Services PC,115 East 57th Street,New York,NY,10022,212-750-3330,"Andrea Vidali, M.D.","Andrew L. Loucopoulos, M.D.","T. Timothy Smith, Ph.D., HCLD",N/A,1404
American Infertility of New York PC,21 East 69th Street,New York,NY,10021,212-994-4400,"Norbert Gleicher, M.D.","Norbert Gleicher, M.D.","Norbert Gleicher, M.D.",N/A,1260
Beth Israel Center for Infertility and Reproductive Health,10 Union Square East,New York,NY,10003,212-844-8587,"Peter L. Chang, M.D.","Peter L. Chang, M.D.","John J. Zhang, M.D., Ph.D., HCLD",N/A,448
Brooklyn/Westside Fertility Center,55 Central Park West,New York,NY,10023,212-721-4545,"Dov B. Goldstein, M.D.","Dov B. Goldstein, M.D.","Dov B. Goldstein, M.D.",http://www.fertilitynewyork.com,56
Columbia University Center for Women's Reproductive Care,1790 Broadway,New York,NY,10019,646-756-8282,"Mark V. Sauer, M.D.","Michael M. Guarnaccia, M.D.","Mark V. Sauer, M.D.",http://www.columbiafertility.org,5812
Continuum Reproductive Center of St Luke's Roosevelt Hospital Center,425 West 59th Street,New York,NY,10019,212-523-7751,"Martin D. Keltz, M.D.","Daniel E. Stein, M.D.","Sangita K. Jindal, Ph.D., HCLD",N/A,1440
"Geoffrey Sher, M.D., PC",425 5th Avenue,New York,NY,10016,646-792-7476,"Geoffrey Sher, M.D.","Drew V. Tortoriello, M.D.","Levent Keskintepe, Ph.D., HCLD",N/A,1132
Manhatten Reproductive Medicine,159 East 74th Street,New York,NY,10021,212-794-0080,"Hanna Jesionowska, M.D.","Hanna Jesionowska, M.D.","Arjun L. Kadam, Ph.D., HCLD",N/A,204
Metropolitan Reproductive Medicine PC,422 West End Avenue,New York,NY,10024,212-580-2252,"Susan M. Lobel, MD","Susan M. Lobel, MD","T. Timothy Smith, Ph.D., HCLD",N/A,44
New Hope Fertility Center,784 Park Avenue,New York,NY,10021,212-517-7676,"John J. Zhang, M.D., Ph.D., HCLD","John J. Zhang, M.D., Ph.D., HCLD","John J. Zhang, M.D., Ph.D., HCLD",N/A,1820
New York University School of Medicine,660 First Ave at 38 St,New York,NY,10016,212-263-8990,"Alan S. Berkeley, M.D.","James A. Grifo, M.D., Ph.D.","Lewis C. Krey, Ph.D.",http://www.NYUFertilityCenter.org,4116
Offices for Fertility & Reproductive Medicine PC,51 East 67th Street,New York,NY,10021,212-535-5350,"Cecilia Schmidt-Sarosi, M.D.","Cecilia Schmidt-Sarosi, M.D.","Cecilia Schmidt-Sarosi, M.D.",http://www.ofrm.com,228
"Reproductive Medicine Associates of New York, LLP",635 Madison Avenue,New York,NY,10022,212-756-5777,"Alan B. Copperman, M.D.","Lawrence Grunfeld, M.D.","Marlena J. Duke, MSc, ELD",http://www.rmany.com,6176
Weill Medical College of Cornell University,1305 York Avenue,New York,NY,10021,646-962-3836,"Zev Rosenwaks, M.D.","Zev Rosenwaks, M.D.","Lucinda Veeck, MLT, D. Sc.",http://www.ivf.org,10644
East Coast Fertility,1074 Old Country Road,Plainview,NY,11803,516-939-2229,"David Kreiner, M.D.","David Kreiner, M.D.","John Moschella, MSELD",http://www.kreinerivf.com,2004
Institute for Reproductive Health and Infertility,1561 Long Pond Road,Rochester,NY,14626,585-453-7760,"Jamil Mroueh, M.D.","Rosalind A. Hayes, M.D.","Margaret C. Graham, TS, ELD",N/A,240
Strong Fertility and Reproductive Science Center,500 Red Creek Drive,Rochester,NY,14623,585-275-7891,"John T. Queenan Jr, M.D.","John T. Queenan Jr, M.D.","Rajesh K. Srivastava Ph.D., HCLD",http://www.stronghealth.com/services/womenshealth/,640
Island Reproductive Services,1110 South Avenue,Staten Island,NY,10314,718-761-6000,"Eric S. Knochenhauer, M.D.","Eric S. Knochenhauer, M.D.","Jyothish Pillai, Ph.D.",N/A,628
Gold Coast IVF,243 Jericho Turnpike,Syosset,NY,11791,516-682-8900,"Steven F. Palter, M.D.","Steven F. Palter, M.D.","Huai-Liang Feng, DVM Ph.D., HCLD",N/A,300
CNY Fertility Center,195 Intrepid Lane,Syracuse,NY,13205,315-469-8700,"Robert J. Kiltz, M.D.","Robert J. Kiltz, M.D.","Robert J. Kiltz, M.D.",http://www.CNYfertility.com,6300
Westchester Fertility & Reproductive Endocrinology,136 South Broadway,White Plains,NY,10605,914-949-6677,"Michael B. Blotner, M.D.","Michael B. Blotner, M.D.","Michael B. Blotner, M.D.",N/A,336
Northeastern Ohio Fertility Center,468 E. Market Street,Akron,OH,44304,330-376-2300,"Nicholas J. Spirtos, D.O.","Nicholas J. Spirtos, D.O.","Nicholas J. Spirtos, D.O.",http://www.drspirtos.com,92
Reproductive Gynecology,95 Arch Street,Akron,OH,44304,330-375-7722,"Richard W. Moretuzzo, M.D.","Richard W. Moretuzzo, M.D.","Keith S. Whitacre, M.S.",N/A,1100
Cleveland Clinic Fertility Center - Beachwood,26900 Cedar Road,Beachwood,OH,44122,216-839-3150,"James Goldfarb, M.D.","James Goldfarb, M.D.","Nina N. Desai, Ph.D., HCLD",http://www.clevelandclinic.org/ivf,2820
Bethesda Center for Reproductive Health and Fertility,10506 Montgomery Road,Cincinnati,OH,45242,513-865-1675,"Glen E. Hofmann, M.D., Ph.D.","Glen E. Hofmann, M.D., Ph.D.","Pradeep Warikoo, Ph.D., HCLD, ELD",http://www.bethesdafertility.com,656
Center for Reproductive Health,2123 Auburn Avenue,Cincinnati,OH,45219,513-585-2355,"Michael A. Thomas, M.D.","Michael A. Thomas, M.D.","Chad A. Johnson, Ph.D., HCLD",http://www.ucfertility.com,416
MacDonald Fertility and IVF Program,11100 Euclid Avenue,Cleveland,OH,44106,216-844-1514,"William H. Hurd, M.D.","William H. Hurd, M.D.",N/A,http://www.uhhs.com/fertility,0
Ohio Reproductive Medicine,4830 Knightsbridge Blvd.,Columbus,OH,43214,614-451-2280,"Grant E. Schmidt, M.D., Ph.D.","Grant E. Schmidt, M.D., Ph.D.","William Baird, III, Ph.D., HCLD",http://www.ohioreproductivemedicine.com,1660
Kettering Reproductive Medicine,3533 Southern Boulevard,Kettering,OH,45429,937-395-8444,"Thomas H. Burwinkel, M.D.","Thomas H. Burwinkel, M.D.","Erica J. Behnke, Ph.D., HCLD",http://www.khnetwork.org/krm,580
Fertility Center of NW Ohio,2142 N Cove Boulevard,Toledo,OH,43606,419-479-8830,"Joseph V. Karnitis, M.D.","Joseph V. Karnitis, M.D.","Joseph V. Karnitis, M.D.",N/A,380
Henry G. Bennett Jr. Fertility Institute,3433 NW 56th Street,Oklahoma City,OK,73112,405-949-6060,"David A. Kallenberger, M.D.","Eli Reshef, M.D.","J. W. E. WorthamJr., Ph.D., HCLD",http://www.integris-health.comclickonBFI,824
OU Physicians Reproductive Health,1000 N. Lincoln Boulevard,Oklahoma City,OK,73104,405-271-1616,"Karl R. Hansen, M.D., Ph.D.","Karl R. Hansen, M.D., Ph.D.","Michael T. Zavy, Ph.D., HCLD",www.ouinfertility.com,416
Tulsa Center for Fertility and Women's Health,115 East 15th Street,Tulsa,OK,74119,918-584-2870,"Judith Blackwell, M.D.","Stanley G. Prough, M.D.","J. Kevin Thibodeaux, Ph.D., HCLD",http://www.fertilitytulsa.com,892
Northwest Fertility Center,1750 SW Harbor Way,Portland,OR,97201,503-227-7799,"Eugene M. Stoelk, M.D.","Eugene M. Stoelk, M.D.","Lisa Standing, BSELD",http://www.fertilitynw.com,228
Oregon Reproductive Medicine,2222 NW Lovejoy,Portland,OR,97210,503-274-4994,"Robert K. Matteri, M.D.","Robert K. Matteri, M.D.","Alison Coates, BSc.",http://www.oregonreproductivemedicine.com,1532
University Fertility Consultants,3303 SW Bond Avenue,Portland,OR,97239-4501,503-418-3700,"Marsha J. Gorrill, M.D.","Marsha J. Gorrill, M.D.","David E. Battaglia, Ph.D., HCLD",http://www.fertilityoregon.com,916
Toll Center for Reproductive Sciences/Abington Reproductive Medicine PC,1245 Highland Avenue,Abington,PA,19001,215-887-2010,"Jay S. Schinfeld, M.D.","Stephen G. Somkuti, M.D., Ph.D.","Scott E. Smith, Ph.D.. HCLD",http://www.abington-repromed.com,1292
"Infertility Solutions, P.C.",1275 South Cedar Crest Boulevarad,Allentown,PA,18103,610-776-1217,"Bruce I. Rose, M.D., Ph.D.","Bruce I. Rose, M.D., Ph.D.","Bruce I. Rose, M.D., Ph.D.",http://www.infertilitysolutions.com,420
Reproductive Medicine Associates of Pennsylvania,401 North 17th Street,Allentown,PA,18104,610-820-6888,"Wendy J. Schillings, M.D.","Wendy J. Schillings, M.D.","Kathleen A. Miller, BSTS",www.rmapa.com,348
Family Fertility Center,95 Highland Ave,Bethlehem,PA,18017,610-868-8600,"H. Christina Lee, M.D., J.D., HCLD","H. Christina Lee, M.D., J.D., HCLD","H. Christina Lee, M.D., J.D., HCLD",N/A,372
Main Line Fertility & Reproductive Medicine,130 South Bryn Mawr Avenue,Bryn Mawr,PA,19010,610-527-0800,"Michael J. Glassner, M.D.","Michael J. Glassner, M.D.","J. David Wininger, Ph.D., HCLD",N/A,2028
Geisinger Medical Center Fertility Center,100 N Academy Ave,Danville,PA,17822,570-271-5620,"Latif l. Awad, M.D.","Latif l. Awad, M.D.","Robert Shabanowitz, Ph.D., HCLD",http://www.geisinger.org/fertility,308
The Milton S. Hershey Medical Center,500 University Drive,Hershey,PA,17033,717-531-8478,"William C. Dodson, M.D.","William C. Dodson, M.D.","Janis M. Moessner, B.S., ELD",N/A,288
Fertility & Gynecology Associates,800 Spruce Street,Philadelphia,PA,19107,215-829-3921,"Maria Pia Platia, M.D.","Maria Pia Platia, M.D.","Scott E. Smith, Ph.D., HCLD",http://www.fertilityandgyn.com,116
University of Pennsylvania Penn Fertility Care,3701 Market Street,Philadelphia,PA,19104-5509,215-662-6100,"Christos Coutifaris, M.D., Ph.D.","Anuja Dokras, M.D., Ph.D.","Christos Coutifaris, M.D., Ph.D.",http://www.pennhealth.com/fertility,1500
Jones Institute at West Penn Allegheny Health Systems,4815 Liberty Avenue,Pittsburgh,PA,15224,412-578-5588,"Scott W. Kauma, M.D.","Scott W. Kauma, M.D.","Jacob F. Mayer, Ph.D., HCLD",N/A,0
"Reproductive Health Specialists, Inc.",665 Rodi Road,Pittsburgh,PA,15235,412-731-8000,"Carolyn J. Kubik, M.D.","Judith L. Albert, M.D.","G. David Ball, Ph.D., HCLD",http://www.ivfpittsburgh.com,940
University of Pittsburgh Physicians,300 Halket Street,Pittsburgh,PA,15213,412-641-1600,"Anthony Wakim, M.D.","Anthony Wakim, M.D.","Anthony Wakim, M.D.",http://www.magee.edu,1204
Crozer Chester Medical Center,1 Medical Center Blvd,Upland,PA,19013,610-447-2727,"Albert El-Roeiy, M.D.","Albert El-Roeiy, M.D.","Charlene Alouf, Ph.D.",N/A,712
Reproductive Science Institute,945 Chesterbrook Boulevard,Wayne,PA,19087,610-981-6000,"Abraham Munabi, M.D.","Abraham Munabi, M.D.","Jeanne L. Walters, BS, ELD",http://www.RSIinfertility.com,548
"Women's Clinic, Ltd.",301 South Seventh Avenue,West Reading,PA,19611,610-374-2214,"Vincent A. Pellegrini, M.D.","Vincent A. Pellegrini, M.D.","Sheldon Schlaff, M.D.",http://www.infertilitypa.com,264
Reproductive Medicine Associates of Philadelphia,735 Fitzwatertown Road,Willow Grove,PA,19090,215-938-1515,"Martin F. Freedman, M.D.","Martin F. Freedman, M.D.","Jeanne Laska Walters, BSELD",http://www.rmaphiladelphia.com,1212
Reproductive Medicine of Pennsylvania,822 Pine Street,Philadelphia,PA,19107,215-829-8110,"Maureen Kelly, M.D.","Maureen Kelly, M.D.","Jeanne L. Walters, B.S., E.L.D.",N/A,0
"Pedro J. Beauchamp, M.D. IVF Program",100 Paseo San Pablo,Bayamon,PR,959,787-798-0100,"Pedro J. Beauchamp, M.D.","Pedro J. Beauchamp, M.D.","Pedro J. Beauchamp, M.D.",http://www.prfertility.com,524
"Gynecology, Reproductive Endocrinology & Fertility Institute (GREFI)",1519 Ponce de Leon Ave,Santurce,PR,910,787-721-3544,"RosaIleana Cruz-Burgos, M.D.","RosaIleana Cruz-Burgos, M.D.","Anil K. Dubey, Ph.D., HCLD",N/A,100
Women and Infants Hospital,1 Blackstone Place,Providence,RI,2905,401-453-7500,"Sandra Carson, M.D.","Sandra Carson, M.D.","Jeannine F. Witmyer, Ph.D., HCLD",N/A,2176
Fertility Center of the Carolinas,890 West Faris Road,Greenville,SC,29605,864-4551600,"Bruce A. Lessey, M.D., Ph.D.","Bruce A. Lessey, M.D., Ph.D.","William R. Boone, Ph.D., HCLD",http://www.ghs.org/rei,320
Piedmont Reproductive Endocrinology Group PA,17 Caledon Court,Greenville,SC,29615,864-232-7734,"John E. Nichols Jr., M.D.","John E. Nichols Jr., M.D.","Anthony Anderson, MSELD",http://piedmontreg.com,484
Southeastern Fertility Center,1375 Hospital Drive,Mount Pleasant,SC,29464,843-881-3900,"Grant W. Patton Jr., M.D.","Grant W. Patton Jr., M.D.","Rodney J. Wade, MSTS",http://www.sefertility.com,924
"Advanced Fertility & Reproductive Endocrinology Institute, LLC",2728 Sunset Boulevard,West Columbia,SC,29169,803-939-1515,"Gail F. Whitman-Elia, M.D., MPH, HCLD","Gail F. Whitman-Elia, M.D., MPH, HCLD","Gail F. Whitman-Elia, M.D., MPH, HCLD",http://www.ivfwecare.com,744
Sanford Women's Health,1500 West 22nd Street MB3,Sioux Falls,SD,57105,605-328-7700,"Keith A. Hansen, M.D.","Keith A. Hansen, M.D.","John D. Brannian, Ph.D., HCLD",http://www.obgynltd.com,656
The Fertility Center of Chattanooga,1624 Gunbarrel Road,Chattanooga,TN,37421,423-899-0500,"Barry W. Donesky, M.D.","Barry W. Donesky, M.D.","Anthony R. Anderson, M.S., ELD",http://www.ChattanoogaFertility.com,264
East Tennessee State University,325 North State of Franklin Road,Johnson City,TN,37604,423-439-7272,"Norman A. Assad, M.D.","Norman A. Assad, M.D.","Norman A. Assad, M.D.",N/A,120
"Kutteh Ke Fertility Associates of Memphis, PLLC",80 Humphrey Center,Memphis,TN,38120,901-747-2229,"Raymond W. Ke, M.D.","Raymond W. Ke, M.D.","William H. Kutteh, M.D., Ph.D., HCLD",http://www.fertilitymemphis.com,840
Nashville Fertility Center P. C.,3452 3rd Avenue North,Nashville,TN,37203,615-321-4740,"George A. Hill, M.D.","George A. Hill, M.D.","Melanie R. Freeman, Ph.D.. HCLD",http://www.nashvillefertility.com,1244
The Center for Reproductive Health,2410 Patterson Street,Nashville,TN,37203,615-321-8899,"Jaime M. Vasquez, M.D.","Jaime M. Vasquez, M.D.","Gary W. Randall, Ph.D., HCLD",http://www.reproductivehealthctr.com,272
Austin Fertility Center,805 East 32nd Street,Austin,TX,78705,512-478-3188,"Jeffrey T. Youngkin, M.D.","Jeffrey T. Youngkin, M.D.","Thomas G. Turner, M.S., ELD",http://www.austinfertilitycenter.com,56
"Texas Fertility Center, Drs Vaughn, Silverberg & Hansard","6500 N Mopac, Building 1",Austin,TX,78731,512-451-0149,"Thomas C. Vaughn, M.D.","Kaylen M. Silverberg, M.D.","Thomas Turner Jr., M.S. ELD",N/A,2172
Center for Assisted Reproduction,1701 Park Place Avenue,Bedford,TX,76022,817-540-1157,"Kevin J. Doody, M.D.","Kevin J. Doody, M.D.","Kevin J. Doody, M.D.",http://www.embryo.net,1268
Reproductive Medicine Associates,4325 N Josey Lane,Carrollton,TX,75010,972-394-3699,"W. F. (Dub) Howard, M.D.","W. F. (Dub) Howard, M.D.","S. G. Kotagi, M.S., MCLD",http://www.wfhoward.com,0
Dallas-Fort Worth Fertility Associates,8160 Walnut Hill Lane,Dallas,TX,75231,214-363-5965,"Samuel J. Chantilis, M.D.","Samuel J. Chantilis, M.D.","Diane G. Hammitt, Ph.D., HCLD",N/A,1484
"Fertility Specialists of Dallas, PA",8230 Walnut Hill Lane,Dallas,TX,75231,214-750-5500,"Jerald S. Goldstein, M.D.","Jerald S. Goldstein, M.D.","Diane G. Hammitt, Ph.D., HCLD",N/A,432
Repromed Fertility Center,3800 San Jacinto Street,Dallas,TX,75204,214-827-8777,"Anil B. Pinto, M.D.","Anil B. Pinto, M.D.","Shidramappa G. Kotagi, MSTSELD",N/A,0
Sher Institute for Reproductive Medicine - Dallas,7777 Forest Lane,Dallas,TX,75230,972-566-6686,"Walid A. Saleh, M.D.","Walid A. Saleh, M.D.","Douglas W. Gliedt, Ph.D., HCLD",http://www.HaveABaby.com,700
The Texas Center for Reproductive Health,3600 Gaston Avenue,Dallas,TX,75246,214-821-2274,"Samuel P. Marynick, M.D.","J. Michael Putman, M.D.","Li (Lilly) Zhang, Ph.D.,HCLD",http://www.txcrh.com,264
The Women's Place,950 Scotland Drive,De Soto,TX,75115,972-709-9777,"Lisa A. King, M.D.","Lisa A. King, M.D.","Sunday Crider-Pirkle, Ph.D., ELD",N/A,60
Southwest Center for Reproductive Health,799 South Mesa Hills,El Paso,TX,79912,915-842-9998,"Luis S. Noble, M.D.","Luis S. Noble, M.D.","Lyla M. Wagley, MS, ELD",N/A,356
Fort Worth Fertility PA,1800 Mistletoe Blvd,Fort Worth,TX,76104,817-348-8145,"Robert A. Kaufmann, M.D.","Robert A. Kaufmann, M.D.","J. Michael Wilson, Ph.D.",http://www.fwivf.com,1144
Dallas IVF,2840 Legacy Drive,Frisco,TX,75034,214-297-0020,"Brian D. Barnett, M.D.","Brian D. Barnett, M.D.","Oscar Perez, Ph.D., HCLD/ELD",http://www.dallasivf.com,1092
Baylor Family Fertility Program,21709 Dryden Road,Houston,TX,77030,713-798-8399,"William E. Gibbons, M.D.","William E. Gibbons, M.D.","Wan-Song A. Won, Ph.D., HCLD, ELD",N/A,0
Center for Women's Medicine,10901 Katy Freeway,Houston,TX,77079,713-467-4488,"Michael A. Allon, M.D.","Michael A. Allon, M.D.","Dmitri I. Dozortsev, M.D., Ph.D., HCLD",N/A,528
Cooper Institute for Advanced Reproductive Medicine,7500 Beechnut,Houston,TX,77074,713-771-9771,"C. James Chuong, M.D.","C. James Chuong, M.D.","C. James Chuong, M.D.",http://www.cooperinstitutearm.com,0
Fertility Specialists of Houston,7900 Fannin,Houston,TX,77054,713-512-7851,"George M. Grunert, M.D.","George M. Grunert, M.D.","Wan-Song A. Wun, Ph.D., HCLD ELD",http://www.fshivf.com,2268
Houston Infertility Clinic,9055 Katy Freeway,Houston,TX,77024,713-862-6181,"Sonja B. Kristiansen, M.D.","Sonja B. Kristiansen, M.D.","J. David Wininger, Ph.D., HCLD",N/A,704
Houston IVF,929 Gessner,Houston,TX,77024,713-465-1211,"Timothy N. Hickman, M.D.","Timothy N. Hickman, M.D.","Pauline L. Cisneros, Ph.D., HCLD",http://www.houstonivf.net,1276
North Houston Center for Reproductive Medicine,530 Wells Fargo Dr.,Houston,TX,77090,281-444-4784,"Dorothy J. Roach, M.D.","Dorothy J. Roach, M.D.","Weirong S. Shang, Ph.D.",http://www.nhcrm.com,200
Advanced Reproductive Care Center,7501 Las Colinas Boulevard,Irving,TX,75063,972-506-9986,"Sy Q. Le, M.D.","Sy Q. Le, M.D.","Sy Q. Le, M.D.",http://www.ivfmd.net,812
Wilford Hall Medical Center,2200 Bergquist Drive,Lackland AFB,TX,78236,210-292-4016,"Jeremy A King, MD","Matthew G. Retzloff, M.D.","Thomas B. Pool, Ph.D.",http://www.whmc.af.mil/ivf,596
Center for Reproductive Medicine,3405 22nd Street,Lubbock,TX,79410,806-788-1212,"Janelle Dorsett, M.D.","Janelle Dorsett, M.D.","Janelle Dorsett, M.D.",N/A,288
Presbyterian Hospital Plano ARTS,6200 West Parker Road,Plano,TX,75093,972-981-7800,"Alfred J. Rodriguez, M.D.","Alfred J. Rodriguez, M.D.","Diane G. Hammitt, Ph.D., HCLD",N/A,1240
Advanced Fertility Center - Institute for Women's Health,502 Madison Oak Drive,San Antonio,TX,78258,210-616-0680,"Joseph R. Garza, M.D.","Joseph R. Garza, M.D.","E. Gayle Schneider, Ph.D., HCLD",N/A,0
Fertility Center of San Antonio,4499 Medical Drive,San Antonio,TX,78229,210-692-0577,"Joseph E. Martin, M.D.","Joseph E. Martin, M.D.","Thomas B. Pool, Ph.D., HCLD",http://www.fertilitysa.com,1152
Fertility Concepts,4499 Medical Drive,San Antonio,TX,78229,210-614-3303,"Linda R. Ellsworth, M.D, Ph.D.","Linda R. Ellsworth, M.D., Ph.D.","E. Gayle Schneider, Ph.D., HCLD",N/A,0
"Reproductive Medicine Associates of Texas, PA",19296 Stone Oak Parkway,San Antonio,TX,78258,210-337-8453,"Francisco Arredondo, M.D., MPH","Francisco Arredondo, M.D., MPH","Richard T. Scott Jr., M.D., HCLD",N/A,716
South Texas Fertility Center,8122 Datapoint Drive,San Antonio,TX,78229,210-567-4930,"Robert G. Brzyski, M.D., Ph.D.","Robert G. Brzyski, M.D., Ph.D.","Carlton E. Eddy, Ph.D.",N/A,260
Houston Fertility Institute,13414 Medical Complex Drive,Tomball,TX,77375,281-357-1881,"Ghassan Haddad, MD","Inderbir S. Gill, M.D.","Wei-Hua Wang, Ph.D., DVM",http://www.houstonfertilityinstitute.com,2768
Center of Reproductive Medicine,1015 Medical Center Boulevard,Webster,TX,77598,281-332-0073,Stephanie Pharr,"Vicki L. Schnell, M.D.","Jonathan P. Richards, M.S., ELD",http://www.infertilitytexas.com,824
Fertility Associates of North Texas,800 5th Avenue,Fort Worth,TX,76104,817-250-7480,"Laura Lawrence, M.D.","Laura Lawrence, M.D.","Tonya Ferguson, Ph.D.",N/A,0
University Fertility Center,"1804 FM 646 West, Suite N",Dickinson,TX,77539,281-335-1942,John Phelps MD,John Phelps MD,Amjad Hossain PhD,http://www.utmb.edu/fertility,136
National Average,United States,of America,USA,"","","","","","",368812
Utah Center for Reproductive Medicine,675 Arapeen Way,Salt Lake City,UT,84108,801-581-4838,"C. Matthew Peterson, M.D.","Ahmad Hammoud, M.D.","Douglas T. Carrell, Ph.D., HCLD",http://www.utahfertilitycenter.com,1196
Reproductive Care Center,10150 South Petunia Way,Sandy,UT,84092,801-878-8888,"James S. Heiner, M.D.","Keith L. Blauer, M.D.","Brett Reggio, Ph.D., HCLD",http://www.fertilitydr.com,1292
Utah Fertility Center,1988 W. 930 N.,Pleasant Grove,UT,84062,801-492-9200,"Russell Foulk, M.D.","Russell Foulk, M.D.","Russell Foulk, M.D.",http://www.utahfertility.com/utah/,0
Washington Fertility Center,4316 L Evergreen Lane,Annandale,VA,22003,703-658-3100,"Pierre Asmar, M.D.","Pierre Asmar, M.D.","Susan A. Daniel, Ph.D., HCLD",N/A,492
Dominion Fertility & Endocrinology,46 S Glebe Road,Arlington,VA,22204,703-920-3890,"Michael DiMattina, M.D.","Michael DiMattina, M.D.","Michael DiMattina, M.D.",http://www.dominionfertility.com,2576
Reproductive Medicine and Surgery Center of Virginia,595 Peter Jefferson Parkway,Charlottesville,VA,22911,434-982-8520,"Christopher D. Williams, M.D.","Christopher D. Williams, M.D.","Theodore S. Thomas, Ph.D., HCLD",http://www.rmscva.com,596
Genetics & IVF Institute,3015 Williams Drive,Fairfax,VA,22031,703-698-7355,"Joseph Schulman, M.D.","Ervin E. Jones, M.D., Ph.D., HCLD","Andrew D. Dorfmann, MS",N/A,1108
The Muasher Center for Fertility and IVF,8501 Arlington Boulevard,Fairfax,VA,22031,703-876-6311,"Suheil J. Muasher, M.D.","Suheil J. Muasher, M.D.","Jacob F. Mayer, Ph.D., HCLD",http://www.mcfivf.com,460
Jones Institute for Reproductive Medicine,601 Colley Ave,Norfolk,VA,23507,757-446-7100,"Sergio Oehninger, M.D.","Laurel Stadtmauer, M.D., Ph.D..","Jacob F. Mayer, Ph.D., HCLD",http://www.jonesinstitute.org,972
Virginia Center for Reproductive Medicine,11150 Sunset Hills Road,Reston,VA,20190,703-437-7722,"Fady I. Sharara, M.D.","Fady I. Sharara, M.D.","Galal Abdo, Ph.D.",http://www.vcrmed.com,524
Fertility Institute of Virginia,10710 Midlothian Turnpike,Richmond,VA,23235,804-379-9000,"Michael C. Edelstein, M.D.","Kenneth A. Steingold, M.D.","Dennis W. Matt, Ph.D., HCLD",http://www.fertilityinstituteofva.com,616
Life Source Fertility Center,7603 Forest Avenue,Richmond,VA,23229,804-673-2273,"Joseph G. Gianfortoni, M.D.","Joseph G. Gianfortoni, M.D.","Dennis W. Matt, Ph.D., HCLD",N/A,212
"Richmond Center for Fertility and Endocrinology, Ltd",7603 Forest Ave,Richmond,VA,23229,804-285-9700,"Sanford M. Rosenberg, M.D.","Sanford M. Rosenberg, M.D.","Dennis W. Matt, Ph.D., HCLD",http://www.eggdoc.com,404
University Center for Advanced Reproductive Medicine,9000 Stony Point Parkway,Richmond,VA,23235,804-828-8468,"Elizabeth McGee, M.D.","Richard S. Lucidi, M.D.","Dennis W. Matt, Ph.D., HCLD",N/A,0
New Hope Center for Reproductive Medicine,1181 First Colonial Road,Virginia Beach,VA,23454,757-496-5370,"Robin Poe-Zeigler, M.D.","Robin Poe-Zeigler, M.D.","J. David Wininger, Ph.D., HCLD, InterimDirector",http://www.thenewhopecenter.com,644
Vermont Center for Reproductive Medicine,1 South Prospect Street,Burlington,VT,5401,802-847-0986,"Peter R. Casson, M.D.","Kristen P. Wright, M.D.","Peter R. Casson, M.D.",N/A,456
Eastside Fertility Laboratory,13701 16th Avenue NE,Bellevue,WA,98004,425-462-6100,"James I. Kustin, M.D.","James I. Kustin, M.D.","James I. Kustin, M.D.",http://www.seattleivf.com,376
"Overlake Reproductive Health, Inc.",11351 16th Avenue Northeast,Bellevue,WA,98004,425-646-4700,"Kevin M. Johnson, M.D.","Kevin M. Johnson, M.D.",Shaun D. Kelly B. Sc.,http://www.fertileweb.com,312
Olympia Women's Health,403 Black Hills Lane SW,Olympia,WA,98502,360-786-1515,"James Moruzzi, M.D., Ph.D.","James Moruzzi, M.D., Ph.D","Shelton Cai, M.D., Ph.D.",http://www.olywomen.com,160
Pacific NW Fertility and IVF Specialists,1101 Madison Street,Seattle,WA,98104,206-515-0000,"Lee R. Hickok, M.D.","Lorna A. Marshall, M.D.","David E. Battaglia, Ph.D., HCLDELD",http://www.pnwfertility.com,1116
Seattle Reproductive Medicine,1505 Westlake Avenue North,Seattle,WA,98109,877-777-6002,"Michael R. Soules, M.D.","Nancy A. Klein, M.D.","G. David Ball, Ph.D., HCLD",http://www.seattlefertility.com,2688
Center for Reproductive Endocrinology & Fertility,508 W. 6th Ave.,Spokane,WA,99204,509-462-7070,"Edwin D. Robins, M.D.","Edwin D. Robins, M.D.","James R. Broussard, Ph.D., HCLD",N/A,476
GYFT Clinic,502 South M Street,Tacoma,WA,98405,253-475-5433,"Robert Z. McLees, M.D.","Joseph A. Robinette, M.D.","Joseph A. Robinette, M.D.",http://www.gyftclinic.com,280
Madigan Army Medical Center,9040 A Fitzsimons Drive,Tacoma,WA,98431-1100,253-968-2781,"Gregory E. Chow, M.D.","Gregory E. Chow, M.D.","G. David Ball, Ph.D., HCLD",N/A,388
The Women's Center at Aurora Bay Care Medical Center,2845 Greenbrier Road,Green Bay,WI,54308-8900,920-288-8500,"Mark F. Severino, M.D.","Mark F. Severino, M.D.","Yaser M. Al-Katanani, Ph.D., HCLD",http://www.aurorahealthcare.org,432
University of Wisconsin Center for Reproductive Medicine,600 Highland Avenue,Madison,WI,53792,608-263-1218,"Charles L. Bormann, Ph.D.","Dan I. Lebovic, M.D.","Mark P D Dow, Ph.D., HCLD",http://www.uwhealth.org/fertility,260
Wisconsin Fertility Institute,3146 Deming Way,Middleton,WI,53562,608-824-0075,"Elizabeth A. Pritts, M.D.","David L. Olive, M.D.","Wael M. Abdel-Megid, M.D., HCLD",N/A,460
Froedtert Medical College Reproductive Medicine Clinic,9200 West Wisconsin Avenue,Milwaukee,WI,53226,414-805-7376,"Estil Y. Strawn, Jr., M.D.","Estil Y. Strawn, Jr., M.D.","Mark Roesler, M.S., ELD",http://www.froedtert.com,764
Reproductive Specialty Center,2015 E Newport Avenue,Milwaukee,WI,53211,414-289-9668,"Grace Janik, M.D.","Grace Janik, M.D.","Mark P D Dow, Ph.D., HCLD",http://www.reproductivecenter.com,272
"Women's Health Care, SC",721 American Avenue,Waukesha,WI,53188,262-549-2229,"Matthew A. Meyer, M.D.","Matthew A. Meyer, M.D.","K. Paul Katayama, M.D., Ph.D.",http://www.ivfwisconsin.org,0
Aurora Fertility Services - West Allis Memorial Hospital,8901 West Lincoln Avenue,West Allis,WI,53227,414-329-4300,"Mark F. Severino, M.D.","Mark F. Severino, M.D.","Yaser M. Al-Katanani, Ph.D., HCLD",N/A,372
West Virginia University Fertility Center,830 Pennsylvania Avenue,Charleston,WV,25304,304-388-1518,"Pickens A. Gantt, M.D.","Pickens A. Gantt, M.D.","Gary W. Randall, Ph.D., HCLD",N/A,0
West Virginia University,1322 Pineview Drive,Morgantown,WV,26505,304-598-3100,"Roger C. Toffle, M.D.","Roger C. Toffle, M.D.","Michael W. Vernon Ph.D., HCLD",http://www.wvivf.com,208
